NORAD_CAT_ID,OBJECT_NAME,OBJECT_TYPE,EPOCH,MEAN_MOTION,ECCENTRICITY,INCLINATION,RA_OF_ASC_NODE,ARG_OF_PERICENTER,MEAN_ANOMALY,BSTAR,MEAN_MOTION_DOT,MEAN_MOTION_DDOT,TLE_LINE0,TLE_LINE1,TLE_LINE2,SEMIMAJOR_AXIS,PERIOD,APOGEE,PERIGEE,DECAYED
51732.0,STARLINK-3518,PAYLOAD,2024-04-05 03:03:24,15.08840858,0.0001142,53.2174,237.5323,92.9181,267.1942,9.9528e-05,1.297e-05,0.0,0 STARLINK-3518,1 51732U 22016U   24096.12736509  .00001297  00000-0  99528-4 0  9999,2 51732  53.2174 237.5323 0001142  92.9181 267.1942 15.08840858118496,6917.878,95.438,540.533,538.953,0.0
51732.0,STARLINK-3518,PAYLOAD,2024-04-05 14:11:05,15.08845898,0.0001232,53.2174,235.451,92.2887,267.8247,0.00022261,3.257e-05,0.0,0 STARLINK-3518,1 51732U 22016U   24096.59103837  .00003257  00000-0  22261-3 0  9999,2 51732  53.2174 235.4510 0001232  92.2887 267.8247 15.08845898118569,6917.862,95.437,540.58,538.875,0.0
51732.0,STARLINK-3518,PAYLOAD,2024-04-05 15:46:28,15.08856086,0.0001225,53.2172,235.1537,86.9362,273.177,0.00012036,1.629e-05,0.0,0 STARLINK-3518,1 51732U 22016U   24096.65727531  .00001629  00000-0  12036-3 0  9999,2 51732  53.2172 235.1537 0001225  86.9362 273.1770 15.08856086118576,6917.831,95.437,540.544,538.849,0.0
51732.0,STARLINK-3518,PAYLOAD,2024-04-06 09:15:44,15.08836976,0.0001225,53.2194,231.885,71.0556,289.0569,0.00014968,2.095e-05,0.0,0 STARLINK-3518,1 51732U 22016U   24097.38592696  .00002095  00000-0  14968-3 0  9996,2 51732  53.2194 231.8850 0001225  71.0556 289.0569 15.08836976118681,6917.89,95.438,540.602,538.907,0.0
51732.0,STARLINK-3518,PAYLOAD,2024-04-06 15:37:16,15.08836036,9.33e-05,53.2181,230.6949,75.8213,284.2883,0.00011586,1.556e-05,0.0,0 STARLINK-3518,1 51732U 22016U   24097.65088839  .00001556  00000-0  11586-3 0  9999,2 51732  53.2181 230.6949 0000933  75.8213 284.2883 15.08836036118728,6917.893,95.438,540.403,539.112,0.0
51732.0,STARLINK-3518,PAYLOAD,2024-04-07 09:06:31,15.08838697,6.19e-05,53.2196,227.4254,39.9802,320.1235,5.8478e-06,-1.94e-06,0.0,0 STARLINK-3518,1 51732U 22016U   24098.37953070 -.00000194  00000-0  58478-5 0  9998,2 51732  53.2196 227.4254 0000619  39.9802 320.1235 15.08838697118831,6917.884,95.438,540.178,539.321,0.0
51732.0,STARLINK-3518,PAYLOAD,2024-04-07 17:03:23,15.08885467,7.2e-05,53.2195,225.9384,62.7166,297.39,0.00033535,5.06e-05,0.0,0 STARLINK-3518,1 51732U 22016U   24098.71069073  .00005060  00000-0  33535-3 0  9998,2 51732  53.2195 225.9384 0000720  62.7166 297.3900 15.08885467118883,6917.741,95.435,540.104,539.108,0.0
51732.0,STARLINK-3518,PAYLOAD,2024-04-08 01:00:21,15.0884811,0.0002264,53.2194,224.4512,89.5621,270.5631,-9.0906e-05,-1.735e-05,0.0,0 STARLINK-3518,1 51732U 22016U   24099.04192080 -.00001735  00000-0 -90906-4 0  9993,2 51732  53.2194 224.4512 0002264  89.5621 270.5631 15.08848110118931,6917.856,95.437,541.287,538.154,0.0
51732.0,STARLINK-3518,PAYLOAD,2024-04-08 08:57:17,15.08838083,0.0001725,53.2188,222.9635,84.3343,275.7846,8.3703e-05,1.044e-05,0.0,0 STARLINK-3518,1 51732U 22016U   24099.37312290  .00001044  00000-0  83703-4 0  9994,2 51732  53.2188 222.9635 0001725  84.3343 275.7846 15.08838083118986,6917.886,95.438,540.945,538.558,0.0
51732.0,STARLINK-3518,PAYLOAD,2024-04-08 15:18:51,15.08826109,6.83e-05,53.2205,221.7759,105.8768,254.2299,-1.6003e-05,-5.42e-06,0.0,0 STARLINK-3518,1 51732U 22016U   24099.63809369 -.00000542  00000-0 -16003-4 0  9994,2 51732  53.2205 221.7759 0000683 105.8768 254.2299 15.08826109119028,6917.923,95.438,540.26,539.315,0.0
51732.0,STARLINK-3518,PAYLOAD,2024-04-09 16:45:00,15.08852469,0.0001937,53.222,217.018,109.1653,250.9549,-0.00027545,-4.671e-05,0.0,0 STARLINK-3518,1 51732U 22016U   24100.69792753 -.00004671  00000-0 -27545-3 0  9990,2 51732  53.2220 217.0180 0001937 109.1653 250.9549 15.08852469119180,6917.842,95.437,541.047,538.367,0.0
51732.0,STARLINK-3518,PAYLOAD,2024-04-10 07:03:29,15.08829437,0.0001086,53.2191,214.3401,104.5641,255.5472,0.00025829,3.824e-05,0.0,0 STARLINK-3518,1 51732U 22016U   24101.29409336  .00003824  00000-0  25829-3 0  9999,2 51732  53.2191 214.3401 0001086 104.5641 255.5472 15.08829437119279,6917.913,95.438,540.529,539.026,0.0
51732.0,STARLINK-3518,PAYLOAD,2024-04-11 13:15:49,15.08842977,0.0001103,53.2144,208.6895,92.2686,267.8433,0.00015604,2.197e-05,0.0,0 STARLINK-3518,1 51732U 22016U   24102.55265206  .00002197  00000-0  15604-3 0  9997,2 51732  53.2144 208.6895 0001103  92.2686 267.8433 15.08842977119460,6917.871,95.437,540.499,538.973,0.0
51732.0,STARLINK-3518,PAYLOAD,2024-04-12 13:06:36,15.08838196,0.0001368,53.2174,204.2299,90.4195,269.6954,8.2675e-05,1.028e-05,0.0,0 STARLINK-3518,1 51732U 22016U   24103.54625788  .00001028  00000-0  82675-4 0  9997,2 51732  53.2174 204.2299 0001368  90.4195 269.6954 15.08838196119614,6917.886,95.438,540.697,538.805,0.0
51732.0,STARLINK-3518,PAYLOAD,2024-04-13 12:57:21,15.08892509,8.28e-05,53.2169,199.7691,71.8134,288.2948,0.0007825,0.00012205,0.0,0 STARLINK-3518,1 51732U 22016U   24104.53983013  .00012205  00000-0  78250-3 0  9997,2 51732  53.2169 199.7691 0000828  71.8134 288.2948 15.08892509119762,6917.72,95.434,540.158,539.012,0.0
51732.0,STARLINK-3518,PAYLOAD,2024-04-14 12:48:10,15.08837573,0.0001042,53.2168,195.3063,62.6879,297.4219,-9.7426e-05,-1.838e-05,0.0,0 STARLINK-3518,1 51732U 22016U   24105.53345062 -.00001838  00000-0 -97426-4 0  9993,2 51732  53.2168 195.3063 0001042  62.6879 297.4219 15.08837573119919,6917.888,95.438,540.474,539.032,0.0
51732.0,STARLINK-3518,PAYLOAD,2024-04-15 12:38:56,15.08850351,0.0001072,53.2171,190.8483,68.4176,291.693,0.00021965,3.211e-05,0.0,0 STARLINK-3518,1 51732U 22016U   24106.52704686  .00003211  00000-0  21965-3 0  9993,2 51732  53.2171 190.8483 0001072  68.4176 291.6930 15.08850351120069,6917.849,95.437,540.455,538.972,0.0
51732.0,STARLINK-3518,PAYLOAD,2024-04-15 22:11:16,15.08841451,0.0001485,53.2165,189.0661,51.5352,308.5773,0.00025561,3.783e-05,0.0,0 STARLINK-3518,1 51732U 22016U   24106.92449140  .00003783  00000-0  25561-3 0  9998,2 51732  53.2165 189.0661 0001485  51.5352 308.5773 15.08841451120128,6917.876,95.437,540.768,538.714,0.0
51732.0,STARLINK-3518,PAYLOAD,2024-04-16 12:29:44,15.08854045,0.000111,53.2171,186.3931,69.8037,290.3075,0.00048114,7.381e-05,0.0,0 STARLINK-3518,1 51732U 22016U   24107.52064893  .00007381  00000-0  48114-3 0  9990,2 51732  53.2171 186.3931 0001110  69.8037 290.3075 15.08854045120218,6917.837,95.437,540.47,538.935,0.0
51732.0,STARLINK-3518,PAYLOAD,2024-04-17 12:20:30,15.08854446,0.0001183,53.2159,181.9288,59.494,300.6168,0.0004897,7.517e-05,0.0,0 STARLINK-3518,1 51732U 22016U   24108.51424610  .00007517  00000-0  48970-3 0  9998,2 51732  53.2159 181.9288 0001183  59.4940 300.6168 15.08854446120367,6917.836,95.437,540.52,538.883,0.0
51732.0,STARLINK-3518,PAYLOAD,2024-04-18 12:11:16,15.08828767,0.0001651,53.2148,177.4654,100.203,259.9148,-0.0008863,-0.00014362,0.0,0 STARLINK-3518,1 51732U 22016U   24109.50782612 -.00014362  00000-0 -88630-3 0  9992,2 51732  53.2148 177.4654 0001651 100.2030 259.9148 15.08828767120515,6917.915,95.438,540.922,538.638,0.0
51732.0,STARLINK-3518,PAYLOAD,2024-04-19 04:05:09,15.0881149,0.0001576,53.2154,174.4948,74.0251,286.0915,-0.00041699,-6.913e-05,0.0,0 STARLINK-3518,1 51732U 22016U   24110.17025048 -.00006913  00000-0 -41699-3 0  9997,2 51732  53.2154 174.4948 0001576  74.0251 286.0915 15.08811490120613,6917.968,95.439,540.923,538.742,0.0
51732.0,STARLINK-3518,PAYLOAD,2024-04-19 10:26:42,15.08814994,0.0001561,53.2154,173.305,78.3988,281.7179,-0.00016822,-2.962e-05,0.0,0 STARLINK-3518,1 51732U 22016U   24110.43521607 -.00002962  00000-0 -16822-3 0  9998,2 51732  53.2154 173.3050 0001561  78.3988 281.7179 15.08814994120653,6917.957,95.439,540.902,538.742,0.0
51732.0,STARLINK-3518,PAYLOAD,2024-04-20 10:17:30,15.08858637,0.0002067,53.2165,168.8455,68.0703,292.0509,0.001306,0.00020569,0.0,0 STARLINK-3518,1 51732U 22016U   24111.42882072  .00020569  00000-0  13060-2 0  9995,2 51732  53.2165 168.8455 0002067  68.0703 292.0509 15.08858637120807,6917.823,95.436,541.118,538.259,0.0
51732.0,STARLINK-3518,PAYLOAD,2024-04-20 13:28:16,15.08868139,0.0001917,53.2161,168.2486,73.5822,286.5381,0.0013821,0.00021794,0.0,0 STARLINK-3518,1 51732U 22016U   24111.56129663  .00021794  00000-0  13821-2 0  9996,2 51732  53.2161 168.2486 0001917  73.5822 286.5381 15.08868139120823,6917.794,95.436,540.986,538.333,0.0
51732.0,STARLINK-3518,PAYLOAD,2024-04-21 03:46:45,15.08813333,0.0001305,53.2176,165.5711,101.7088,258.4051,0.00022956,3.365e-05,0.0,0 STARLINK-3518,1 51732U 22016U   24112.15746853  .00003365  00000-0  22956-3 0  9992,2 51732  53.2176 165.5711 0001305 101.7088 258.4051 15.08813333120917,6917.962,95.439,540.73,538.924,0.0
51732.0,STARLINK-3518,PAYLOAD,2024-04-21 13:19:04,15.08813917,0.0001587,53.2174,163.7853,122.5525,237.5621,0.00021807,3.182e-05,0.0,0 STARLINK-3518,1 51732U 22016U   24112.55491616  .00003182  00000-0  21807-3 0  9991,2 51732  53.2174 163.7853 0001587 122.5525 237.5621 15.08813917120976,6917.96,95.439,540.923,538.727,0.0
51732.0,STARLINK-3518,PAYLOAD,2024-04-22 03:37:33,15.08837305,0.0001394,53.2163,161.1132,125.6921,234.4201,0.0011253,0.00017665,0.0,0 STARLINK-3518,1 51732U 22016U   24113.15108095  .00017665  00000-0  11253-2 0  9998,2 51732  53.2163 161.1132 0001394 125.6921 234.4201 15.08837305121064,6917.889,95.438,540.718,538.789,0.0
51732.0,STARLINK-3518,PAYLOAD,2024-04-22 09:59:05,15.08862608,0.0001407,53.216,159.9259,106.7929,253.3218,0.001606,0.0002538,0.0,0 STARLINK-3518,1 51732U 22016U   24113.41603785  .00025380  00000-0  16060-2 0  9997,2 51732  53.2160 159.9259 0001407 106.7929 253.3218 15.08862608121106,6917.811,95.436,540.65,538.703,0.0
51732.0,STARLINK-3518,PAYLOAD,2024-04-23 09:49:52,15.08864406,0.0001511,53.2162,155.4632,94.0997,266.0167,0.0011833,0.00018607,0.0,0 STARLINK-3518,1 51732U 22016U   24114.40963288  .00018607  00000-0  11833-2 0  9991,2 51732  53.2162 155.4632 0001511  94.0997 266.0167 15.08864406121252,6917.806,95.436,540.716,538.626,0.0
